TRANSPORTER-12 OBJECT AZ
1 62656U 25009AZ  26068.71026235  .00016057  00000+0  54903-3 0  9991
2 62656  97.3981 151.9913 0000987  45.3581 314.7740 15.30349724 63792
STARLINK-33872          
1 64189U 25113V   26068.44848278  .00031019  00000+0  10544-2 0  9996
2 64189  53.1605  91.8609 0001442  59.9173 300.1971 15.30220217 44998
